{
  "type": "FeatureCollection",
  "features": [
    {
      "type": "Feature",
      "properties": {
        "norad_id": 30654,
        "name": "FENGYUN 1C DEB",
        "group": "fengyun-1c-debris",
        "lat": -29.546509552213127,
        "lon": -90.52150813625389,
        "alt_km": 860.9232647862955,
        "timestamp": "2025-12-07T03:52:32.775050+00:00",
        "meta_object_name": "FENGYUN 1C DEB",
        "meta_object_id": "1999-025APL",
        "meta_epoch": "2025-12-06T05:59:16.331712",
        "meta_mean_motion": 14.17055988,
        "meta_eccentricity": 0.0034743,
        "meta_inclination": 99.2406,
        "meta_ra_of_asc_node": 263.2366,
        "meta_arg_of_pericenter": 114.9294,
        "meta_mean_anomaly": 245.5495,
        "meta_ephemeris_type": 0,
        "meta_classification_type": "U",
        "meta_norad_cat_id": 30654,
        "meta_element_set_no": 999,
        "meta_rev_at_epoch": 96588,
        "meta_bstar": 0.0020206238,
        "meta_mean_motion_dot": 4.043e-05,
        "meta_mean_motion_ddot": 0,
        "tle_line1": "1 30654U 99025APL 25340.24949458  .00004043  00000+0  20206-2 0  9994",
        "tle_line2": "2 30654  99.2406 263.2366 0034743 114.9294 245.5495 14.17055988965887"
      },
      "geometry": {
        "type": "Point",
        "coordinates": [
          -90.52150813625389,
          -29.546509552213127
        ]
      }
    },
    {
      "type": "Feature",
      "properties": {
        "norad_id": 30656,
        "name": "FENGYUN 1C DEB",
        "group": "fengyun-1c-debris",
        "lat": -79.71630451969246,
        "lon": -144.0059490070746,
        "alt_km": 770.0905909638832,
        "timestamp": "2025-12-07T03:52:32.775060+00:00",
        "meta_object_name": "FENGYUN 1C DEB",
        "meta_object_id": "1999-025APN",
        "meta_epoch": "2025-12-06T11:39:14.319360",
        "meta_mean_motion": 14.45150743,
        "meta_eccentricity": 0.00302814,
        "meta_inclination": 99.0181,
        "meta_ra_of_asc_node": 154.1962,
        "meta_arg_of_pericenter": 105.458,
        "meta_mean_anomaly": 254.9957,
        "meta_ephemeris_type": 0,
        "meta_classification_type": "U",
        "meta_norad_cat_id": 30656,
        "meta_element_set_no": 999,
        "meta_rev_at_epoch": 96995,
        "meta_bstar": 0.0048285142,
        "meta_mean_motion_dot": 0.00016988,
        "meta_mean_motion_ddot": 0,
        "tle_line1": "1 30656U 99025APN 25340.48558240  .00016988  00000+0  48285-2 0  9995",
        "tle_line2": "2 30656  99.0181 154.1962 0030281 105.4580 254.9957 14.45150743969958"
      },
      "geometry": {
        "type": "Point",
        "coordinates": [
          -144.0059490070746,
          -79.71630451969246
        ]
      }
    },
    {
      "type": "Feature",
      "properties": {
        "norad_id": 30657,
        "name": "FENGYUN 1C DEB",
        "group": "fengyun-1c-debris",
        "lat": 13.610727066116313,
        "lon": -98.8124026350203,
        "alt_km": 775.3218894422016,
        "timestamp": "2025-12-07T03:52:32.775070+00:00",
        "meta_object_name": "FENGYUN 1C DEB",
        "meta_object_id": "1999-025APP",
        "meta_epoch": "2025-12-06T05:32:25.626624",
        "meta_mean_motion": 14.38465745,
        "meta_eccentricity": 0.0015831,
        "meta_inclination": 98.8365,
        "meta_ra_of_asc_node": 78.0716,
        "meta_arg_of_pericenter": 5.8948,
        "meta_mean_anomaly": 23.5924,
        "meta_ephemeris_type": 0,
        "meta_classification_type": "U",
        "meta_norad_cat_id": 30657,
        "meta_element_set_no": 999,
        "meta_rev_at_epoch": 97139,
        "meta_bstar": 0.003499021,
        "meta_mean_motion_dot": 0.00010668,
        "meta_mean_motion_ddot": 0,
        "tle_line1": "1 30657U 99025APP 25340.23085216  .00010668  00000+0  34990-2 0  9994",
        "tle_line2": "2 30657  98.8365  78.0716 0015831   5.8948  23.5924 14.38465745971394"
      },
      "geometry": {
        "type": "Point",
        "coordinates": [
          -98.8124026350203,
          13.610727066116313
        ]
      }
    },
    {
      "type": "Feature",
      "properties": {
        "norad_id": 30658,
        "name": "FENGYUN 1C DEB",
        "group": "fengyun-1c-debris",
        "lat": -2.2481150766451417,
        "lon": 14.470524934242654,
        "alt_km": 996.492641288236,
        "timestamp": "2025-12-07T03:52:32.775081+00:00",
        "meta_object_name": "FENGYUN 1C DEB",
        "meta_object_id": "1999-025APQ",
        "meta_epoch": "2025-12-03T01:12:41.803776",
        "meta_mean_motion": 13.87127057,
        "meta_eccentricity": 0.01832033,
        "meta_inclination": 98.4391,
        "meta_ra_of_asc_node": 10.4218,
        "meta_arg_of_pericenter": 254.1059,
        "meta_mean_anomaly": 103.9843,
        "meta_ephemeris_type": 0,
        "meta_classification_type": "U",
        "meta_norad_cat_id": 30658,
        "meta_element_set_no": 999,
        "meta_rev_at_epoch": 94550,
        "meta_bstar": 0.0023182779,
        "meta_mean_motion_dot": 3.066e-05,
        "meta_mean_motion_ddot": 0,
        "tle_line1": "1 30658U 99025APQ 25337.05048384  .00003066  00000+0  23183-2 0  9992",
        "tle_line2": "2 30658  98.4391  10.4218 0183203 254.1059 103.9843 13.87127057945509"
      },
      "geometry": {
        "type": "Point",
        "coordinates": [
          14.470524934242654,
          -2.2481150766451417
        ]
      }
    },
    {
      "type": "Feature",
      "properties": {
        "norad_id": 30660,
        "name": "FENGYUN 1C DEB",
        "group": "fengyun-1c-debris",
        "lat": -57.1866490485178,
        "lon": -115.35045680926305,
        "alt_km": 651.9409921739998,
        "timestamp": "2025-12-07T03:52:32.775091+00:00",
        "meta_object_name": "FENGYUN 1C DEB",
        "meta_object_id": "1999-025APS",
        "meta_epoch": "2025-12-06T05:56:13.202592",
        "meta_mean_motion": 14.87420924,
        "meta_eccentricity": 0.01380281,
        "meta_inclination": 98.1432,
        "meta_ra_of_asc_node": 76.5423,
        "meta_arg_of_pericenter": 355.543,
        "meta_mean_anomaly": 32.0607,
        "meta_ephemeris_type": 0,
        "meta_classification_type": "U",
        "meta_norad_cat_id": 30660,
        "meta_element_set_no": 999,
        "meta_rev_at_epoch": 688,
        "meta_bstar": 0.00094121474,
        "meta_mean_motion_dot": 0.00010094,
        "meta_mean_motion_ddot": 0,
        "tle_line1": "1 30660U 99025APS 25340.24737503  .00010094  00000+0  94121-3 0  9998",
        "tle_line2": "2 30660  98.1432  76.5423 0138028 355.5430  32.0607 14.87420924  6889"
      },
      "geometry": {
        "type": "Point",
        "coordinates": [
          -115.35045680926305,
          -57.1866490485178
        ]
      }
    },
    {
      "type": "Feature",
      "properties": {
        "norad_id": 30661,
        "name": "FENGYUN 1C DEB",
        "group": "fengyun-1c-debris",
        "lat": -0.8206939071198333,
        "lon": -23.7114974135049,
        "alt_km": 874.6495022188092,
        "timestamp": "2025-12-07T03:52:32.775101+00:00",
        "meta_object_name": "FENGYUN 1C DEB",
        "meta_object_id": "1999-025APT",
        "meta_epoch": "2025-12-06T10:08:40.780608",
        "meta_mean_motion": 14.21136702,
        "meta_eccentricity": 0.01448815,
        "meta_inclination": 99.4871,
        "meta_ra_of_asc_node": 155.6326,
        "meta_arg_of_pericenter": 63.3443,
        "meta_mean_anomaly": 298.2487,
        "meta_ephemeris_type": 0,
        "meta_classification_type": "U",
        "meta_norad_cat_id": 30661,
        "meta_element_set_no": 999,
        "meta_rev_at_epoch": 97812,
        "meta_bstar": 0.00021398269,
        "meta_mean_motion_dot": 4.68e-06,
        "meta_mean_motion_ddot": 0,
        "tle_line1": "1 30661U 99025APT 25340.42269422  .00000468  00000+0  21398-3 0  9999",
        "tle_line2": "2 30661  99.4871 155.6326 0144881  63.3443 298.2487 14.21136702978127"
      },
      "geometry": {
        "type": "Point",
        "coordinates": [
          -23.7114974135049,
          -0.8206939071198333
        ]
      }
    },
    {
      "type": "Feature",
      "properties": {
        "norad_id": 30662,
        "name": "FENGYUN 1C DEB",
        "group": "fengyun-1c-debris",
        "lat": -22.942146369919445,
        "lon": -146.5810034484744,
        "alt_km": 820.6325457482735,
        "timestamp": "2025-12-07T03:52:32.775111+00:00",
        "meta_object_name": "FENGYUN 1C DEB",
        "meta_object_id": "1999-025APU",
        "meta_epoch": "2025-12-03T02:48:18.846720",
        "meta_mean_motion": 14.22256685,
        "meta_eccentricity": 0.00325542,
        "meta_inclination": 99.0531,
        "meta_ra_of_asc_node": 33.1374,
        "meta_arg_of_pericenter": 299.1565,
        "meta_mean_anomaly": 86.7895,
        "meta_ephemeris_type": 0,
        "meta_classification_type": "U",
        "meta_norad_cat_id": 30662,
        "meta_element_set_no": 999,
        "meta_rev_at_epoch": 96502,
        "meta_bstar": 0.0019182856,
        "meta_mean_motion_dot": 4.237e-05,
        "meta_mean_motion_ddot": 0,
        "tle_line1": "1 30662U 99025APU 25337.11688480  .00004237  00000+0  19183-2 0  9997",
        "tle_line2": "2 30662  99.0531  33.1374 0032554 299.1565  86.7895 14.22256685965029"
      },
      "geometry": {
        "type": "Point",
        "coordinates": [
          -146.5810034484744,
          -22.942146369919445
        ]
      }
    }
  ]
}